NORAD_CAT_ID,OBJECT_NAME,OBJECT_TYPE,EPOCH,MEAN_MOTION,ECCENTRICITY,INCLINATION,RA_OF_ASC_NODE,ARG_OF_PERICENTER,MEAN_ANOMALY,BSTAR,MEAN_MOTION_DOT,MEAN_MOTION_DDOT,TLE_LINE0,TLE_LINE1,TLE_LINE2,SEMIMAJOR_AXIS,PERIOD,APOGEE,PERIGEE,DECAYED
56470.0,STARLINK-5523,PAYLOAD,2023-12-05 10:57:25,14.98312782,0.0002339,70.0039,45.3175,259.1591,100.9305,0.00046386,5.443e-05,0.0,0 STARLINK-5523,1 56470U 23064Y   23339.45655090  .00005443  00000-0  46386-3 0  9997,2 56470  70.0039  45.3175 0002339 259.1591 100.9305 14.98312782 32487,6950.246,96.108,573.737,570.485,0.0
56470.0,STARLINK-5523,PAYLOAD,2023-12-05 12:33:33,14.98319867,0.0002356,70.0022,45.1465,265.5089,94.5801,0.00047006,5.519e-05,0.0,0 STARLINK-5523,1 56470U 23064Y   23339.52330623  .00005519  00000-0  47006-3 0  9991,2 56470  70.0022  45.1465 0002356 265.5089  94.5801 14.98319867 32133,6950.224,96.108,573.727,570.452,0.0
56470.0,STARLINK-5523,PAYLOAD,2023-12-06 12:35:34,14.98333237,0.0002313,70.0027,42.6233,257.4373,102.6528,8.8691e-05,9.66e-06,0.0,0 STARLINK-5523,1 56470U 23064Y   23340.52470672  .00000966  00000-0  88691-4 0  9999,2 56470  70.0027  42.6233 0002313 257.4373 102.6528 14.98333237 32282,6950.183,96.107,573.655,570.44,0.0
56470.0,STARLINK-5523,PAYLOAD,2023-12-07 12:37:41,14.98259213,0.0002967,70.0025,40.0984,253.265,106.8183,-0.00099957,-0.00011977,0.0,0 STARLINK-5523,1 56470U 23064Y   23341.52616945 -.00011977  00000-0 -99957-3 0  9997,2 56470  70.0025  40.0984 0002967 253.2650 106.8183 14.98259213 32433,6950.412,96.112,574.339,570.215,0.0
56470.0,STARLINK-5523,PAYLOAD,2023-12-08 03:02:47,14.98330703,0.000304,70.0018,38.581,271.456,88.6251,-4.973e-05,-6.86e-06,0.0,0 STARLINK-5523,1 56470U 23064Y   23342.12694231 -.00000686  00000-0 -49730-4 0  9998,2 56470  70.0018  38.5810 0003040 271.4560  88.6251 14.98330703 32886,6950.191,96.107,574.169,569.943,0.0
56470.0,STARLINK-5523,PAYLOAD,2023-12-08 12:39:36,14.98330098,0.0002696,70.001,37.5699,269.0644,91.0206,1.5968e-05,9.8e-07,0.0,0 STARLINK-5523,1 56470U 23064Y   23342.52750075  .00000098  00000-0  15968-4 0  9992,2 56470  70.0010  37.5699 0002696 269.0644  91.0206 14.98330098 32586,6950.193,96.107,573.931,570.184,0.0
56470.0,STARLINK-5523,PAYLOAD,2023-12-09 11:05:28,14.98357547,0.0003188,70.0006,35.2131,270.6184,89.4609,-0.0004455,-5.408e-05,0.0,0 STARLINK-5523,1 56470U 23064Y   23343.46213313 -.00005408  00000-0 -44550-3 0  9995,2 56470  70.0006  35.2131 0003188 270.6184  89.4609 14.98357547 33083,6950.108,96.105,574.188,569.757,0.0
56470.0,STARLINK-5523,PAYLOAD,2023-12-09 12:41:36,14.98335341,0.0003107,70.0006,35.0449,272.8128,87.2675,-7.1049e-05,-9.41e-06,0.0,0 STARLINK-5523,1 56470U 23064Y   23343.52889734 -.00000941  00000-0 -71049-4 0  9999,2 56470  70.0006  35.0449 0003107 272.8128  87.2675 14.98335341 32734,6950.176,96.107,574.201,569.882,0.0
56470.0,STARLINK-5523,PAYLOAD,2023-12-10 12:43:37,14.98330734,0.0003077,70.0006,32.5201,275.6495,84.4313,7.4687e-07,-8.4e-07,0.0,0 STARLINK-5523,1 56470U 23064Y   23344.53029791 -.00000084  00000-0  74687-6 0  9990,2 56470  70.0006  32.5201 0003077 275.6495  84.4313 14.98330734 32881,6950.191,96.107,574.194,569.917,0.0
56470.0,STARLINK-5523,PAYLOAD,2023-12-11 12:45:38,14.98328122,0.0003083,70.0005,29.9952,275.8869,84.1938,-1.9564e-05,-3.26e-06,0.0,0 STARLINK-5523,1 56470U 23064Y   23345.53170042 -.00000326  00000-0 -19564-4 0  9998,2 56470  70.0005  29.9952 0003083 275.8869  84.1938 14.98328122 33033,6950.199,96.107,574.206,569.921,0.0
56470.0,STARLINK-5523,PAYLOAD,2023-12-12 12:47:39,14.9833022,0.0003074,70.0003,27.4705,268.3078,91.7729,4.4785e-05,4.41e-06,0.0,0 STARLINK-5523,1 56470U 23064Y   23346.53309614  .00000441  00000-0  44785-4 0  9997,2 56470  70.0003  27.4705 0003074 268.3078  91.7729 14.98330220 33189,6950.192,96.107,574.194,569.921,0.0
56470.0,STARLINK-5523,PAYLOAD,2023-12-13 12:49:40,14.9833021,0.000294,70.0007,24.9451,270.7945,89.2877,7.4551e-05,7.97e-06,0.0,0 STARLINK-5523,1 56470U 23064Y   23347.53449478  .00000797  00000-0  74551-4 0  9999,2 56470  70.0007  24.9451 0002940 270.7945  89.2877 14.98330210 33336,6950.192,96.107,574.101,570.014,0.0
56470.0,STARLINK-5523,PAYLOAD,2023-12-13 20:50:20,14.98331219,0.0002921,70.0008,24.1041,269.2295,90.8529,4.1815e-05,4.06e-06,0.0,0 STARLINK-5523,1 56470U 23064Y   23347.86829483  .00000406  00000-0  41815-4 0  9997,2 56470  70.0008  24.1041 0002921 269.2295  90.8529 14.98331219 33381,6950.189,96.107,574.084,570.024,0.0
56470.0,STARLINK-5523,PAYLOAD,2023-12-14 12:51:41,14.98330014,0.0002902,70.0007,22.4208,264.1291,95.9538,-1.3023e-05,-2.48e-06,0.0,0 STARLINK-5523,1 56470U 23064Y   23348.53589569 -.00000248  00000-0 -13023-4 0  9996,2 56470  70.0007  22.4208 0002902 264.1291  95.9538 14.98330014 33484,6950.193,96.107,574.075,570.041,0.0
56470.0,STARLINK-5523,PAYLOAD,2023-12-15 11:17:34,14.98328726,0.0002797,70.0006,20.0641,259.0129,101.0715,-1.8532e-05,-3.14e-06,0.0,0 STARLINK-5523,1 56470U 23064Y   23349.47053592 -.00000314  00000-0 -18532-4 0  9996,2 56470  70.0006  20.0641 0002797 259.0129 101.0715 14.98328726 33622,6950.197,96.107,574.006,570.118,0.0
56470.0,STARLINK-5523,PAYLOAD,2023-12-16 03:18:54,14.98326597,0.0003019,70.0005,18.3806,267.4926,92.5887,1.5967e-05,9.8e-07,0.0,0 STARLINK-5523,1 56470U 23064Y   23350.13813656  .00000098  00000-0  15967-4 0  9992,2 56470  70.0005  18.3806 0003019 267.4926  92.5887 14.98326597 34089,6950.203,96.107,574.167,569.97,0.0
56470.0,STARLINK-5523,PAYLOAD,2023-12-16 11:19:35,14.98327338,0.0002967,70.0005,17.5393,265.1875,94.8945,2.0351e-06,-6.9e-07,0.0,0 STARLINK-5523,1 56470U 23064Y   23350.47193700 -.00000069  00000-0  20351-5 0  9993,2 56470  70.0005  17.5393 0002967 265.1875  94.8945 14.98327338 33779,6950.201,96.107,574.128,570.004,0.0
56470.0,STARLINK-5523,PAYLOAD,2023-12-17 03:20:55,14.98330073,0.0002985,70.0004,15.8559,266.2105,93.8712,3.0044e-05,2.66e-06,0.0,0 STARLINK-5523,1 56470U 23064Y   23351.13953464  .00000266  00000-0  30044-4 0  9995,2 56470  70.0004  15.8559 0002985 266.2105  93.8712 14.98330073 34234,6950.193,96.107,574.132,569.983,0.0
56470.0,STARLINK-5523,PAYLOAD,2023-12-17 11:21:36,14.98330366,0.0002977,70.0004,15.0145,264.5864,95.4955,3.024e-05,2.68e-06,0.0,0 STARLINK-5523,1 56470U 23064Y   23351.47333435  .00000268  00000-0  30240-4 0  9992,2 56470  70.0004  15.0145 0002977 264.5864  95.4955 14.98330366 33928,6950.192,96.107,574.126,569.988,0.0
56470.0,STARLINK-5523,PAYLOAD,2023-12-18 03:22:56,14.98332003,0.0003029,70.0002,13.331,265.32,94.7613,4.5215e-05,4.47e-06,0.0,0 STARLINK-5523,1 56470U 23064Y   23352.14093215  .00000447  00000-0  45215-4 0  9993,2 56470  70.0002  13.3310 0003029 265.3200  94.7613 14.98332003 34387,6950.187,96.107,574.157,569.946,0.0
56470.0,STARLINK-5523,PAYLOAD,2023-12-18 11:23:36,14.98334882,0.0002969,70.0003,12.4896,263.1343,96.9478,7.5286e-05,8.06e-06,0.0,0 STARLINK-5523,1 56470U 23064Y   23352.47472865  .00000806  00000-0  75286-4 0  9991,2 56470  70.0003  12.4896 0002969 263.1343  96.9478 14.98334882 34079,6950.178,96.107,574.106,569.979,0.0
56470.0,STARLINK-5523,PAYLOAD,2023-12-19 03:24:57,14.98327303,0.0002792,70.0007,10.8074,257.9285,102.1561,-2.7939e-05,-4.26e-06,0.0,0 STARLINK-5523,1 56470U 23064Y   23353.14233548 -.00000426  00000-0 -27939-4 0  9991,2 56470  70.0007  10.8074 0002792 257.9285 102.1561 14.98327303 34537,6950.201,96.107,574.007,570.126,0.0
56470.0,STARLINK-5523,PAYLOAD,2023-12-19 11:25:38,14.98323126,0.0002936,70.0005,9.9652,265.8959,94.1865,-1.1199e-05,-2.27e-06,0.0,0 STARLINK-5523,1 56470U 23064Y   23353.47613843 -.00000227  00000-0 -11199-4 0  9997,2 56470  70.0005   9.9652 0002936 265.8959  94.1865 14.98323126 34224,6950.214,96.107,574.12,570.039,0.0
56470.0,STARLINK-5523,PAYLOAD,2023-12-20 03:26:58,14.98328155,0.0002671,70.0003,8.2813,256.3978,103.6884,-6.2998e-05,-8.44e-06,0.0,0 STARLINK-5523,1 56470U 23064Y   23354.14373739 -.00000844  00000-0 -62998-4 0  9997,2 56470  70.0003   8.2813 0002671 256.3978 103.6884 14.98328155 34689,6950.199,96.107,573.92,570.207,0.0
56470.0,STARLINK-5523,PAYLOAD,2023-12-20 11:27:39,14.98330401,0.0002731,70.0005,7.4398,260.0547,100.0304,-2.5079e-05,-3.92e-06,0.0,0 STARLINK-5523,1 56470U 23064Y   23354.47753496 -.00000392  00000-0 -25079-4 0  9992,2 56470  70.0005   7.4398 0002731 260.0547 100.0304 14.98330401 34372,6950.192,96.107,573.955,570.159,0.0
56470.0,STARLINK-5523,PAYLOAD,2023-12-21 03:28:59,14.98330921,0.0002761,70.0003,5.7553,266.3738,93.7105,9.3123e-05,1.018e-05,0.0,0 STARLINK-5523,1 56470U 23064Y   23355.14513091  .00001018  00000-0  93123-4 0  9991,2 56470  70.0003   5.7553 0002761 266.3738  93.7105 14.98330921 34833,6950.19,96.107,573.974,570.136,0.0
56470.0,STARLINK-5523,PAYLOAD,2023-12-21 09:53:31,14.9833425,0.00027,70.0003,5.082,263.8962,96.189,0.00012665,1.419e-05,0.0,0 STARLINK-5523,1 56470U 23064Y   23355.41216740  .00001419  00000-0  12665-3 0  9998,2 56470  70.0003   5.0820 0002700 263.8962  96.1890 14.98334250 34519,6950.18,96.107,573.921,570.168,0.0
56470.0,STARLINK-5523,PAYLOAD,2023-12-22 03:31:00,14.98325908,0.0002448,70.0019,3.2334,237.1094,122.983,-1.9399e-05,-3.24e-06,0.0,0 STARLINK-5523,1 56470U 23064Y   23356.14653655 -.00000324  00000-0 -19399-4 0  9997,2 56470  70.0019   3.2334 0002448 237.1094 122.9830 14.98325908 34988,6950.206,96.107,573.772,570.369,0.0
56470.0,STARLINK-5523,PAYLOAD,2023-12-22 09:55:33,14.98321636,0.0002563,70.0007,2.5573,258.976,101.1111,-6.9753e-05,-9.25e-06,0.0,0 STARLINK-5523,1 56470U 23064Y   23356.41358225 -.00000925  00000-0 -69753-4 0  9998,2 56470  70.0007   2.5573 0002563 258.9760 101.1111 14.98321636 35022,6950.219,96.108,573.865,570.302,0.0
56470.0,STARLINK-5523,PAYLOAD,2023-12-23 03:33:01,14.98331216,0.0002952,70.0,0.7054,265.3357,94.7465,-5.0436e-05,-6.95e-06,0.0,0 STARLINK-5523,1 56470U 23064Y   23357.14793584 -.00000695  00000-0 -50436-4 0  9992,2 56470  70.0000   0.7054 0002952 265.3357  94.7465 14.98331216 35131,6950.189,96.107,574.106,570.002,0.0
